{"spkid": "54092904", "covariance": {"labels": ["e", "q", "tp", "node", "peri", "i"], "data": [["2.655309188832382E-15", "-3.536621908368241E-15", "-1.045804789263785E-13", "-3.164914420222638E-13", "2.577696627609394E-13", "-4.192687340720275E-13"], ["-3.536621908368241E-15", "4.820788700015745E-15", "-1.271949241176308E-13", "4.138029505991388E-13", "-4.202532064287763E-13", "5.462649912434658E-13"], ["-1.045804789263785E-13", "-1.271949241176308E-13", "7.630186757145795E-10", "2.828022818212046E-11", "2.744906753789778E-10", "4.234732060750871E-11"], ["-3.164914420222638E-13", "4.138029505991388E-13", "2.828022818212046E-11", "1.386035882862573E-10", "-9.407184718436065E-11", "1.145912468421838E-10"], ["2.577696627609394E-13", "-4.202532064287763E-13", "2.744906753789778E-10", "-9.407184718436065E-11", "2.29436423520272E-10", "-5.626202735202375E-11"], ["-4.192687340720275E-13", "5.462649912434658E-13", "4.234732060750871E-11", "1.145912468421838E-10", "-5.626202735202375E-11", "3.889742419190988E-10"]], "elements": [{"title": "eccentricity", "value": ".3061353360850571", "units": null, "sigma": 5.15296923029081e-08, "name": "e", "label": "e"}, {"label": "q", "name": "q", "sigma": 6.94318997292725e-08, "value": ".9320664085170514", "title": "perihelion distance", "units": "au"}, {"units": "TDB", "value": "2458090.212447595176", "title": "time of perihelion passage", "name": "tp", "sigma": 2.76227926849292e-05, "label": "tp"}, {"sigma": 1.17730025178906e-05, "name": "om", "value": "263.2467440216064", "title": "longitude of the ascending node", "units": "deg", "label": "node"}, {"name": "w", "sigma": 1.51471589256953e-05, "units": "deg", "value": "224.2181264715551", "title": "argument of perihelion", "label": "peri"}, {"label": "i", "title": "inclination", "value": "23.0247110453127", "units": "deg", "name": "i", "sigma": 1.97224299192341e-05}], "epoch": "2458338.5"}, "elements": [{"name": "e", "sigma": "5.137E-8", "title": "eccentricity", "value": ".3060743632165739", "units": null, "label": "e"}, {"label": "a", "sigma": "1.5001E-8", "name": "a", "title": "semi-major axis", "value": "1.343028647512727", "units": "au"}, {"units": "au", "value": ".9319620094436528", "title": "perihelion distance", "sigma": "6.9442E-8", "name": "q", "label": "q"}, {"units": "deg", "title": "inclination; angle with respect to x-y ecliptic plane", "value": "23.02201223894346", "name": "i", "sigma": "1.9719E-5", "label": "i"}, {"title": "longitude of the ascending node", "value": "263.2055995123223", "units": "deg", "name": "om", "sigma": "1.1789E-5", "label": "node"}, {"units": "deg", "title": "argument of perihelion", "value": "224.2978244586989", "sigma": "1.5164E-5", "name": "w", "label": "peri"}, {"units": "deg", "title": "mean anomaly", "value": "169.4557025891053", "name": "ma", "sigma": "1.8382E-5", "label": "M"}, {"label": "tp", "sigma": "2.4917E-5", "name": "tp", "units": "TDB", "value": "2460932.903746161233", "title": "time of perihelion passage"}, {"label": "period", "value": "568.4945971723813", "title": "sidereal orbital period", "units": "d", "name": "per", "sigma": "9.5246E-6"}, {"label": "n", "sigma": "1.061E-8", "name": "n", "units": "deg/d", "title": "mean motion", "value": ".6332514007883162"}, {"label": "Q", "units": "au", "value": "1.754095285581802", "title": "aphelion distance", "sigma": "1.9592E-8", "name": "ad"}], "epoch": "2461200.5"}